[{"OBJECT_NAME":"STARLINK-4365","OBJECT_ID":"2022-084AR","EPOCH":"2026-03-09T17:27:24.161472","MEAN_MOTION":15.01260015,"ECCENTRICITY":5.872e-5,"INCLINATION":97.6046,"RA_OF_ASC_NODE":130.2378,"ARG_OF_PERICENTER":190.7419,"MEAN_ANOMALY":169.3793,"EPHEMERIS_TYPE":0,"CLASSIFICATION_TYPE":"U","NORAD_CAT_ID":53228,"ELEMENT_SET_NO":999,"REV_AT_EPOCH":19932,"BSTAR":5.6397386e-5,"MEAN_MOTION_DOT":6.66e-6,"MEAN_MOTION_DDOT":0},{"OBJECT_NAME":"OBJECT U","OBJECT_ID":"2017-042U","EPOCH":"2026-03-09T22:07:56.164512","MEAN_MOTION":15.00675308,"ECCENTRICITY":0.00148173,"INCLINATION":97.4238,"RA_OF_ASC_NODE":229.7372,"ARG_OF_PERICENTER":56.7191,"MEAN_ANOMALY":303.5451,"EPHEMERIS_TYPE":0,"CLASSIFICATION_TYPE":"U","NORAD_CAT_ID":42843,"ELEMENT_SET_NO":999,"REV_AT_EPOCH":47173,"BSTAR":0.00030670501,"MEAN_MOTION_DOT":3.834e-5,"MEAN_MOTION_DDOT":0}]
